<?xml version="1.0" encoding="UTF-8"?>
<ndm xmlns:xsi="http://www.w3.org/2001/XMLSchema-instance" xsi:noNamespaceSchemaLocation="https://sanaregistry.org/r/ndmxml_unqualified/ndmxml-2.0.0-master-2.0.xsd">
<omm id="CCSDS_OMM_VERS" version="2.0">
<header><CREATION_DATE/><ORIGINATOR/></header><body><segment><metadata><OBJECT_NAME>ORBCOMM FM05</OBJECT_NAME><OBJECT_ID>1997-084F</OBJECT_ID><CENTER_NAME>EARTH</CENTER_NAME><REF_FRAME>TEME</REF_FRAME><TIME_SYSTEM>UTC</TIME_SYSTEM><MEAN_ELEMENT_THEORY>SGP4</MEAN_ELEMENT_THEORY></metadata><data><meanElements><EPOCH>2024-09-08T11:32:13.253280</EPOCH><MEAN_MOTION>14.43582912</MEAN_MOTION><ECCENTRICITY>.0004482</ECCENTRICITY><INCLINATION>45.0143</INCLINATION><RA_OF_ASC_NODE>278.5317</RA_OF_ASC_NODE><ARG_OF_PERICENTER>269.2410</ARG_OF_PERICENTER><MEAN_ANOMALY>90.7927</MEAN_ANOMALY></meanElements><tleParameters><EPHEMERIS_TYPE>0</EPHEMERIS_TYPE><CLASSIFICATION_TYPE>U</CLASSIFICATION_TYPE><NORAD_CAT_ID>25117</NORAD_CAT_ID><ELEMENT_SET_NO>999</ELEMENT_SET_NO><REV_AT_EPOCH>39986</REV_AT_EPOCH><BSTAR>.20214E-2</BSTAR><MEAN_MOTION_DOT>.6779E-4</MEAN_MOTION_DOT><MEAN_MOTION_DDOT>0</MEAN_MOTION_DDOT></tleParameters></data></segment></body></omm>
<omm id="CCSDS_OMM_VERS" version="2.0">
<header><CREATION_DATE/><ORIGINATOR/></header><body><segment><metadata><OBJECT_NAME>ORBCOMM FM06</OBJECT_NAME><OBJECT_ID>1997-084G</OBJECT_ID><CENTER_NAME>EARTH</CENTER_NAME><REF_FRAME>TEME</REF_FRAME><TIME_SYSTEM>UTC</TIME_SYSTEM><MEAN_ELEMENT_THEORY>SGP4</MEAN_ELEMENT_THEORY></metadata><data><meanElements><EPOCH>2024-09-08T12:47:13.753248</EPOCH><MEAN_MOTION>14.43692752</MEAN_MOTION><ECCENTRICITY>.0003898</ECCENTRICITY><INCLINATION>45.0135</INCLINATION><RA_OF_ASC_NODE>278.3668</RA_OF_ASC_NODE><ARG_OF_PERICENTER>279.7115</ARG_OF_PERICENTER><MEAN_ANOMALY>240.4185</MEAN_ANOMALY></meanElements><tleParameters><EPHEMERIS_TYPE>0</EPHEMERIS_TYPE><CLASSIFICATION_TYPE>U</CLASSIFICATION_TYPE><NORAD_CAT_ID>25118</NORAD_CAT_ID><ELEMENT_SET_NO>999</ELEMENT_SET_NO><REV_AT_EPOCH>40078</REV_AT_EPOCH><BSTAR>.19367E-2</BSTAR><MEAN_MOTION_DOT>.6504E-4</MEAN_MOTION_DOT><MEAN_MOTION_DDOT>0</MEAN_MOTION_DDOT></tleParameters></data></segment></body></omm>
<omm id="CCSDS_OMM_VERS" version="2.0">
<header><CREATION_DATE/><ORIGINATOR/></header><body><segment><metadata><OBJECT_NAME>ORBCOMM FM07</OBJECT_NAME><OBJECT_ID>1997-084H</OBJECT_ID><CENTER_NAME>EARTH</CENTER_NAME><REF_FRAME>TEME</REF_FRAME><TIME_SYSTEM>UTC</TIME_SYSTEM><MEAN_ELEMENT_THEORY>SGP4</MEAN_ELEMENT_THEORY></metadata><data><meanElements><EPOCH>2024-09-08T12:01:50.673216</EPOCH><MEAN_MOTION>14.43585984</MEAN_MOTION><ECCENTRICITY>.0004942</ECCENTRICITY><INCLINATION>45.0130</INCLINATION><RA_OF_ASC_NODE>279.1381</RA_OF_ASC_NODE><ARG_OF_PERICENTER>260.6054</ARG_OF_PERICENTER><MEAN_ANOMALY>99.4238</MEAN_ANOMALY></meanElements><tleParameters><EPHEMERIS_TYPE>0</EPHEMERIS_TYPE><CLASSIFICATION_TYPE>U</CLASSIFICATION_TYPE><NORAD_CAT_ID>25119</NORAD_CAT_ID><ELEMENT_SET_NO>999</ELEMENT_SET_NO><REV_AT_EPOCH>40077</REV_AT_EPOCH><BSTAR>.18235E-2</BSTAR><MEAN_MOTION_DOT>.6101E-4</MEAN_MOTION_DOT><MEAN_MOTION_DDOT>0</MEAN_MOTION_DDOT></tleParameters></data></segment></body></omm>
<omm id="CCSDS_OMM_VERS" version="2.0">
<header><CREATION_DATE/><ORIGINATOR/></header><body><segment><metadata><OBJECT_NAME>ORBCOMM FM03</OBJECT_NAME><OBJECT_ID>1998-007B</OBJECT_ID><CENTER_NAME>EARTH</CENTER_NAME><REF_FRAME>TEME</REF_FRAME><TIME_SYSTEM>UTC</TIME_SYSTEM><MEAN_ELEMENT_THEORY>SGP4</MEAN_ELEMENT_THEORY></metadata><data><meanElements><EPOCH>2024-09-08T14:41:24.317664</EPOCH><MEAN_MOTION>14.32832090</MEAN_MOTION><ECCENTRICITY>.0045877</ECCENTRICITY><INCLINATION>107.9725</INCLINATION><RA_OF_ASC_NODE>277.7591</RA_OF_ASC_NODE><ARG_OF_PERICENTER>18.7060</ARG_OF_PERICENTER><MEAN_ANOMALY>341.5753</MEAN_ANOMALY></meanElements><tleParameters><EPHEMERIS_TYPE>0</EPHEMERIS_TYPE><CLASSIFICATION_TYPE>U</CLASSIFICATION_TYPE><NORAD_CAT_ID>25158</NORAD_CAT_ID><ELEMENT_SET_NO>999</ELEMENT_SET_NO><REV_AT_EPOCH>38368</REV_AT_EPOCH><BSTAR>.15764E-2</BSTAR><MEAN_MOTION_DOT>.423E-4</MEAN_MOTION_DOT><MEAN_MOTION_DDOT>0</MEAN_MOTION_DDOT></tleParameters></data></segment></body></omm>
<omm id="CCSDS_OMM_VERS" version="2.0">
<header><CREATION_DATE/><ORIGINATOR/></header><body><segment><metadata><OBJECT_NAME>ORBCOMM FM04</OBJECT_NAME><OBJECT_ID>1998-007C</OBJECT_ID><CENTER_NAME>EARTH</CENTER_NAME><REF_FRAME>TEME</REF_FRAME><TIME_SYSTEM>UTC</TIME_SYSTEM><MEAN_ELEMENT_THEORY>SGP4</MEAN_ELEMENT_THEORY></metadata><data><meanElements><EPOCH>2024-09-08T12:11:50.920800</EPOCH><MEAN_MOTION>14.33103797</MEAN_MOTION><ECCENTRICITY>.0041521</ECCENTRICITY><INCLINATION>107.9708</INCLINATION><RA_OF_ASC_NODE>280.5698</RA_OF_ASC_NODE><ARG_OF_PERICENTER>16.2298</ARG_OF_PERICENTER><MEAN_ANOMALY>344.0161</MEAN_ANOMALY></meanElements><tleParameters><EPHEMERIS_TYPE>0</EPHEMERIS_TYPE><CLASSIFICATION_TYPE>U</CLASSIFICATION_TYPE><NORAD_CAT_ID>25159</NORAD_CAT_ID><ELEMENT_SET_NO>999</ELEMENT_SET_NO><REV_AT_EPOCH>38384</REV_AT_EPOCH><BSTAR>.17436E-2</BSTAR><MEAN_MOTION_DOT>.4709E-4</MEAN_MOTION_DOT><MEAN_MOTION_DDOT>0</MEAN_MOTION_DDOT></tleParameters></data></segment></body></omm>
<omm id="CCSDS_OMM_VERS" version="2.0">
<header><CREATION_DATE/><ORIGINATOR/></header><body><segment><metadata><OBJECT_NAME>ORBCOMM FM17</OBJECT_NAME><OBJECT_ID>1998-046A</OBJECT_ID><CENTER_NAME>EARTH</CENTER_NAME><REF_FRAME>TEME</REF_FRAME><TIME_SYSTEM>UTC</TIME_SYSTEM><MEAN_ELEMENT_THEORY>SGP4</MEAN_ELEMENT_THEORY></metadata><data><meanElements><EPOCH>2024-09-08T20:03:40.540032</EPOCH><MEAN_MOTION>14.33679305</MEAN_MOTION><ECCENTRICITY>.0001769</ECCENTRICITY><INCLINATION>44.9929</INCLINATION><RA_OF_ASC_NODE>144.2102</RA_OF_ASC_NODE><ARG_OF_PERICENTER>262.2963</ARG_OF_PERICENTER><MEAN_ANOMALY>97.7683</MEAN_ANOMALY></meanElements><tleParameters><EPHEMERIS_TYPE>0</EPHEMERIS_TYPE><CLASSIFICATION_TYPE>U</CLASSIFICATION_TYPE><NORAD_CAT_ID>25413</NORAD_CAT_ID><ELEMENT_SET_NO>999</ELEMENT_SET_NO><REV_AT_EPOCH>36294</REV_AT_EPOCH><BSTAR>.1441E-2</BSTAR><MEAN_MOTION_DOT>.3895E-4</MEAN_MOTION_DOT><MEAN_MOTION_DDOT>0</MEAN_MOTION_DDOT></tleParameters></data></segment></body></omm>
<omm id="CCSDS_OMM_VERS" version="2.0">
<header><CREATION_DATE/><ORIGINATOR/></header><body><segment><metadata><OBJECT_NAME>ORBCOMM FM18</OBJECT_NAME><OBJECT_ID>1998-046B</OBJECT_ID><CENTER_NAME>EARTH</CENTER_NAME><REF_FRAME>TEME</REF_FRAME><TIME_SYSTEM>UTC</TIME_SYSTEM><MEAN_ELEMENT_THEORY>SGP4</MEAN_ELEMENT_THEORY></metadata><data><meanElements><EPOCH>2024-09-08T12:29:11.490432</EPOCH><MEAN_MOTION>14.36629759</MEAN_MOTION><ECCENTRICITY>.0003644</ECCENTRICITY><INCLINATION>44.9928</INCLINATION><RA_OF_ASC_NODE>70.1404</RA_OF_ASC_NODE><ARG_OF_PERICENTER>287.1420</ARG_OF_PERICENTER><MEAN_ANOMALY>72.9028</MEAN_ANOMALY></meanElements><tleParameters><EPHEMERIS_TYPE>0</EPHEMERIS_TYPE><CLASSIFICATION_TYPE>U</CLASSIFICATION_TYPE><NORAD_CAT_ID>25414</NORAD_CAT_ID><ELEMENT_SET_NO>999</ELEMENT_SET_NO><REV_AT_EPOCH>36371</REV_AT_EPOCH><BSTAR>.20196E-2</BSTAR><MEAN_MOTION_DOT>.5861E-4</MEAN_MOTION_DOT><MEAN_MOTION_DDOT>0</MEAN_MOTION_DDOT></tleParameters></data></segment></body></omm>
<omm id="CCSDS_OMM_VERS" version="2.0">
<header><CREATION_DATE/><ORIGINATOR/></header><body><segment><metadata><OBJECT_NAME>ORBCOMM FM19</OBJECT_NAME><OBJECT_ID>1998-046C</OBJECT_ID><CENTER_NAME>EARTH</CENTER_NAME><REF_FRAME>TEME</REF_FRAME><TIME_SYSTEM>UTC</TIME_SYSTEM><MEAN_ELEMENT_THEORY>SGP4</MEAN_ELEMENT_THEORY></metadata><data><meanElements><EPOCH>2024-09-08T13:53:49.325568</EPOCH><MEAN_MOTION>14.36461898</MEAN_MOTION><ECCENTRICITY>.0002626</ECCENTRICITY><INCLINATION>44.9936</INCLINATION><RA_OF_ASC_NODE>71.4384</RA_OF_ASC_NODE><ARG_OF_PERICENTER>272.7910</ARG_OF_PERICENTER><MEAN_ANOMALY>134.1051</MEAN_ANOMALY></meanElements><tleParameters><EPHEMERIS_TYPE>0</EPHEMERIS_TYPE><CLASSIFICATION_TYPE>U</CLASSIFICATION_TYPE><NORAD_CAT_ID>25415</NORAD_CAT_ID><ELEMENT_SET_NO>999</ELEMENT_SET_NO><REV_AT_EPOCH>36368</REV_AT_EPOCH><BSTAR>.19614E-2</BSTAR><MEAN_MOTION_DOT>.5668E-4</MEAN_MOTION_DOT><MEAN_MOTION_DDOT>0</MEAN_MOTION_DDOT></tleParameters></data></segment></body></omm>

</ndm>
