ORBCOMM FM05            
1 25117U 97084F   24252.48070895  .00006779  00000+0  20214-2 0  9999
2 25117  45.0143 278.5317 0004482 269.2410  90.7927 14.43582912399868
ORBCOMM FM06            
1 25118U 97084G   24252.53279807  .00006504  00000+0  19367-2 0  9993
2 25118  45.0135 278.3668 0003898 279.7115 240.4185 14.43692752400783
ORBCOMM FM07            
1 25119U 97084H   24252.50128094  .00006101  00000+0  18235-2 0  9998
2 25119  45.0130 279.1381 0004942 260.6054  99.4238 14.43585984400770
ORBCOMM FM03            
1 25158U 98007B   24252.61208701  .00004230  00000+0  15764-2 0  9998
2 25158 107.9725 277.7591 0045877  18.7060 341.5753 14.32832090383683
ORBCOMM FM04            
1 25159U 98007C   24252.50822825  .00004709  00000+0  17436-2 0  9995
2 25159 107.9708 280.5698 0041521  16.2298 344.0161 14.33103797383848
ORBCOMM FM17            
1 25413U 98046A   24252.83588588  .00003895  00000+0  14410-2 0  9996
2 25413  44.9929 144.2102 0001769 262.2963  97.7683 14.33679305362946
ORBCOMM FM18            
1 25414U 98046B   24252.52027188  .00005861  00000+0  20196-2 0  9990
2 25414  44.9928  70.1404 0003644 287.1420  72.9028 14.36629759363711
ORBCOMM FM19            
1 25415U 98046C   24252.57904312  .00005668  00000+0  19614-2 0  9997
2 25415  44.9936  71.4384 0002626 272.7910 134.1051 14.36461898363686
